OBJECT C                
1 57582U 23117C   24163.17312290  .00008358  00000+0  43824-3 0  9999
2 57582  97.4860 235.3115 0009572 320.3155  39.7376 15.15979564 46271
